ICEYE-X21               
1 55049U 23001AS  26162.49197056  .00349655  58366-4  48611-3 0  9994
2 55049  97.3065 248.4788 0002272 215.2129 144.9003 16.05984448192700
ICEYE-X25               
1 56963U 23084AH  26162.67063453  .00041313  00000+0  51236-3 0  9998
2 56963  97.5872 308.5377 0002466 305.8249  54.2777 15.59933352167114
ICEYE-X31               
1 58288U 23174AJ  26162.72327416  .00016241  00000+0  49375-3 0  9991
2 58288  97.3789 238.4660 0001615  17.6418 342.4880 15.34120754143914
ICEYE-X34               
1 58294U 23174AQ  26162.22637917  .00067681  00000+0  71047-3 0  9998
2 58294  97.3885 253.1399 0004983 188.3114 171.8064 15.64135704144813
ICEYE-X35               
1 58302U 23174AY  26162.69675567  .00042029  00000+0  69801-3 0  9996
2 58302  97.3803 247.1187 0009337 210.0076 150.0643 15.51936223144496
ICEYE-X38               
1 59100U 24043C   26162.69380958  .00004721  00000+0  27282-3 0  9990
2 59100  97.8390 306.2900 0003944 101.5361 258.6312 15.12804596110842
ICEYE-X37               
1 59102U 24043E   26162.66632091  .00004294  00000+0  29768-3 0  9993
2 59102  97.8295 299.5805 0015686  32.3974 327.8212 15.06078043124254
ICEYE-X36               
1 59103U 24043F   26162.67267757  .00004267  00000+0  29063-3 0  9996
2 59103  97.8352 300.6472 0005454 350.4846   9.6276 15.06821321124314
ICEYE-X39               
1 60546U 24149CG  26162.47301962  .00002949  00000+0  24275-3 0  9996
2 60546  97.6764 239.5746 0004690 133.4775 226.6839 14.99861325 99267
ICEYE-X33               
1 60548U 24149CJ  26162.50234839  .00004369  00000+0  34773-3 0  9992
2 60548  97.7262 241.6742 0001545 105.5391 254.6003 15.00910295 99351
