{
 "generated_at": "2026-06-11T23:47:41Z",
 "sources": [
  {
   "name": "CelesTrak",
   "url": "https://celestrak.org/NORAD/elements/",
   "license": "frei verfügbar; Attribution. Ursprünglich USSPACECOM/Space-Track."
  },
  {
   "name": "GCAT (J. McDowell, planet4589.org)",
   "url": "https://planet4589.org/space/gcat/",
   "license": "CC-BY 4.0"
  }
 ],
 "satellites": [
  {
   "norad": 55049,
   "name": "ICEYE-X21",
   "intl": "2023-001AS",
   "group": "sar",
   "gcat": {
    "class": "B",
    "category": "IMG-R",
    "owner": "ICEYE",
    "state": "FI"
   },
   "omm": {
    "OBJECT_NAME": "ICEYE-X21",
    "OBJECT_ID": "2023-001AS",
    "EPOCH": "2026-06-11T11:48:26.256384",
    "MEAN_MOTION": 16.05984448,
    "ECCENTRICITY": 0.0002272,
    "INCLINATION": 97.3065,
    "RA_OF_ASC_NODE": 248.4788,
    "ARG_OF_PERICENTER": 215.2129,
    "MEAN_ANOMALY": 144.9003,
    "EPHEMERIS_TYPE": 0,
    "CLASSIFICATION_TYPE": "U",
    "NORAD_CAT_ID": 55049,
    "ELEMENT_SET_NO": 999,
    "REV_AT_EPOCH": 19270,
    "BSTAR": 0.00048611,
    "MEAN_MOTION_DOT": 0.00349655,
    "MEAN_MOTION_DDOT": 0.000058366
   }
  },
  {
   "norad": 56963,
   "name": "ICEYE-X25",
   "intl": "2023-084AH",
   "group": "sar",
   "gcat": {
    "class": "B",
    "category": "IMG-R",
    "owner": "ICEYE",
    "state": "FI"
   },
   "omm": {
    "OBJECT_NAME": "ICEYE-X25",
    "OBJECT_ID": "2023-084AH",
    "EPOCH": "2026-06-11T16:05:42.823392",
    "MEAN_MOTION": 15.59933352,
    "ECCENTRICITY": 0.0002466,
    "INCLINATION": 97.5872,
    "RA_OF_ASC_NODE": 308.5377,
    "ARG_OF_PERICENTER": 305.8249,
    "MEAN_ANOMALY": 54.2777,
    "EPHEMERIS_TYPE": 0,
    "CLASSIFICATION_TYPE": "U",
    "NORAD_CAT_ID": 56963,
    "ELEMENT_SET_NO": 999,
    "REV_AT_EPOCH": 16711,
    "BSTAR": 0.00051236,
    "MEAN_MOTION_DOT": 0.00041313,
    "MEAN_MOTION_DDOT": 0
   }
  },
  {
   "norad": 58288,
   "name": "ICEYE-X31",
   "intl": "2023-174AJ",
   "group": "sar",
   "gcat": {
    "class": "B",
    "category": "IMG-R",
    "owner": "ICEYE",
    "state": "FI"
   },
   "omm": {
    "OBJECT_NAME": "ICEYE-X31",
    "OBJECT_ID": "2023-174AJ",
    "EPOCH": "2026-06-11T17:21:30.887424",
    "MEAN_MOTION": 15.34120754,
    "ECCENTRICITY": 0.0001615,
    "INCLINATION": 97.3789,
    "RA_OF_ASC_NODE": 238.466,
    "ARG_OF_PERICENTER": 17.6418,
    "MEAN_ANOMALY": 342.488,
    "EPHEMERIS_TYPE": 0,
    "CLASSIFICATION_TYPE": "U",
    "NORAD_CAT_ID": 58288,
    "ELEMENT_SET_NO": 999,
    "REV_AT_EPOCH": 14391,
    "BSTAR": 0.00049375,
    "MEAN_MOTION_DOT": 0.00016241,
    "MEAN_MOTION_DDOT": 0
   }
  },
  {
   "norad": 60548,
   "name": "ICEYE-X33",
   "intl": "2024-149CJ",
   "group": "sar",
   "gcat": {
    "class": "B",
    "category": "IMG-R",
    "owner": "ICEUS/ICEYE",
    "state": "US"
   },
   "omm": {
    "OBJECT_NAME": "ICEYE-X33",
    "OBJECT_ID": "2024-149CJ",
    "EPOCH": "2026-06-11T12:03:22.900896",
    "MEAN_MOTION": 15.00910295,
    "ECCENTRICITY": 0.0001545,
    "INCLINATION": 97.7262,
    "RA_OF_ASC_NODE": 241.6742,
    "ARG_OF_PERICENTER": 105.5391,
    "MEAN_ANOMALY": 254.6003,
    "EPHEMERIS_TYPE": 0,
    "CLASSIFICATION_TYPE": "U",
    "NORAD_CAT_ID": 60548,
    "ELEMENT_SET_NO": 999,
    "REV_AT_EPOCH": 9935,
    "BSTAR": 0.00034773,
    "MEAN_MOTION_DOT": 0.00004369,
    "MEAN_MOTION_DDOT": 0
   }
  },
  {
   "norad": 58294,
   "name": "ICEYE-X34",
   "intl": "2023-174AQ",
   "group": "sar",
   "gcat": {
    "class": "B",
    "category": "IMG-R",
    "owner": "ICEUS",
    "state": "US"
   },
   "omm": {
    "OBJECT_NAME": "ICEYE-X34",
    "OBJECT_ID": "2023-174AQ",
    "EPOCH": "2026-06-11T05:25:59.160288",
    "MEAN_MOTION": 15.64135704,
    "ECCENTRICITY": 0.0004983,
    "INCLINATION": 97.3885,
    "RA_OF_ASC_NODE": 253.1399,
    "ARG_OF_PERICENTER": 188.3114,
    "MEAN_ANOMALY": 171.8064,
    "EPHEMERIS_TYPE": 0,
    "CLASSIFICATION_TYPE": "U",
    "NORAD_CAT_ID": 58294,
    "ELEMENT_SET_NO": 999,
    "REV_AT_EPOCH": 14481,
    "BSTAR": 0.00071047,
    "MEAN_MOTION_DOT": 0.00067681,
    "MEAN_MOTION_DDOT": 0
   }
  },
  {
   "norad": 58302,
   "name": "ICEYE-X35",
   "intl": "2023-174AY",
   "group": "sar",
   "gcat": {
    "class": "B",
    "category": "IMG-R",
    "owner": "ICEYE",
    "state": "FI"
   },
   "omm": {
    "OBJECT_NAME": "ICEYE-X35",
    "OBJECT_ID": "2023-174AY",
    "EPOCH": "2026-06-11T16:43:19.689888",
    "MEAN_MOTION": 15.51936223,
    "ECCENTRICITY": 0.0009337,
    "INCLINATION": 97.3803,
    "RA_OF_ASC_NODE": 247.1187,
    "ARG_OF_PERICENTER": 210.0076,
    "MEAN_ANOMALY": 150.0643,
    "EPHEMERIS_TYPE": 0,
    "CLASSIFICATION_TYPE": "U",
    "NORAD_CAT_ID": 58302,
    "ELEMENT_SET_NO": 999,
    "REV_AT_EPOCH": 14449,
    "BSTAR": 0.00069801,
    "MEAN_MOTION_DOT": 0.00042029,
    "MEAN_MOTION_DDOT": 0
   }
  },
  {
   "norad": 59103,
   "name": "ICEYE-X36",
   "intl": "2024-043F",
   "group": "sar",
   "gcat": {
    "class": "B",
    "category": "IMG-R",
    "owner": "ICEUS",
    "state": "US"
   },
   "omm": {
    "OBJECT_NAME": "ICEYE-X36",
    "OBJECT_ID": "2024-043F",
    "EPOCH": "2026-06-11T16:08:39.342048",
    "MEAN_MOTION": 15.06821321,
    "ECCENTRICITY": 0.0005454,
    "INCLINATION": 97.8352,
    "RA_OF_ASC_NODE": 300.6472,
    "ARG_OF_PERICENTER": 350.4846,
    "MEAN_ANOMALY": 9.6276,
    "EPHEMERIS_TYPE": 0,
    "CLASSIFICATION_TYPE": "U",
    "NORAD_CAT_ID": 59103,
    "ELEMENT_SET_NO": 999,
    "REV_AT_EPOCH": 12431,
    "BSTAR": 0.00029063,
    "MEAN_MOTION_DOT": 0.00004267,
    "MEAN_MOTION_DDOT": 0
   }
  },
  {
   "norad": 59102,
   "name": "ICEYE-X37",
   "intl": "2024-043E",
   "group": "sar",
   "gcat": {
    "class": "B",
    "category": "IMG-R",
    "owner": "ICEUS",
    "state": "US"
   },
   "omm": {
    "OBJECT_NAME": "ICEYE-X37",
    "OBJECT_ID": "2024-043E",
    "EPOCH": "2026-06-11T15:59:30.126624",
    "MEAN_MOTION": 15.06078043,
    "ECCENTRICITY": 0.0015686,
    "INCLINATION": 97.8295,
    "RA_OF_ASC_NODE": 299.5805,
    "ARG_OF_PERICENTER": 32.3974,
    "MEAN_ANOMALY": 327.8212,
    "EPHEMERIS_TYPE": 0,
    "CLASSIFICATION_TYPE": "U",
    "NORAD_CAT_ID": 59102,
    "ELEMENT_SET_NO": 999,
    "REV_AT_EPOCH": 12425,
    "BSTAR": 0.00029768,
    "MEAN_MOTION_DOT": 0.00004294,
    "MEAN_MOTION_DDOT": 0
   }
  },
  {
   "norad": 59100,
   "name": "ICEYE-X38",
   "intl": "2024-043C",
   "group": "sar",
   "gcat": {
    "class": "B",
    "category": "IMG-R",
    "owner": "ICEYE",
    "state": "FI"
   },
   "omm": {
    "OBJECT_NAME": "ICEYE-X38",
    "OBJECT_ID": "2024-043C",
    "EPOCH": "2026-06-11T16:39:05.147712",
    "MEAN_MOTION": 15.12804596,
    "ECCENTRICITY": 0.0003944,
    "INCLINATION": 97.839,
    "RA_OF_ASC_NODE": 306.29,
    "ARG_OF_PERICENTER": 101.5361,
    "MEAN_ANOMALY": 258.6312,
    "EPHEMERIS_TYPE": 0,
    "CLASSIFICATION_TYPE": "U",
    "NORAD_CAT_ID": 59100,
    "ELEMENT_SET_NO": 999,
    "REV_AT_EPOCH": 11084,
    "BSTAR": 0.00027282,
    "MEAN_MOTION_DOT": 0.00004721,
    "MEAN_MOTION_DDOT": 0
   }
  },
  {
   "norad": 60546,
   "name": "ICEYE-X39",
   "intl": "2024-149CG",
   "group": "sar",
   "gcat": {
    "class": "B",
    "category": "IMG-R",
    "owner": "FAB/ICEYE",
    "state": "BR"
   },
   "omm": {
    "OBJECT_NAME": "ICEYE-X39",
    "OBJECT_ID": "2024-149CG",
    "EPOCH": "2026-06-11T11:21:08.895168",
    "MEAN_MOTION": 14.99861325,
    "ECCENTRICITY": 0.000469,
    "INCLINATION": 97.6764,
    "RA_OF_ASC_NODE": 239.5746,
    "ARG_OF_PERICENTER": 133.4775,
    "MEAN_ANOMALY": 226.6839,
    "EPHEMERIS_TYPE": 0,
    "CLASSIFICATION_TYPE": "U",
    "NORAD_CAT_ID": 60546,
    "ELEMENT_SET_NO": 999,
    "REV_AT_EPOCH": 9926,
    "BSTAR": 0.00024275,
    "MEAN_MOTION_DOT": 0.00002949,
    "MEAN_MOTION_DDOT": 0
   }
  }
 ]
}
